STARLINK-4107           
1 53287U 22086AX  26068.58543194  .00000247  00000+0  33589-4 0  9998
2 53287  53.2173 184.5907 0001371  80.5395 279.5752 15.08839066201178
ICEYE-X65               
1 66300U 25248H   26068.07195372  .00003385  00000+0  23070-3 0  9995
2 66300  45.3996 300.9889 0005141 200.5324 159.5352 15.08278623 20405
